0 SL-8 R/B
1 27437U 02026B   13282.05484388  .00000045  00000-0  30355-4 0  8762
2 27437 082.9528 348.7851 0045758 188.1487 220.3712 13.76527293571051
0 SL-8 R/B
1 27437U 02026B   13284.16422889  .00000063  00000-0  48286-4 0  8777
2 27437 082.9526 347.2206 0045883 182.3071 233.3659 13.76527317571344
0 SL-8 R/B
1 27437U 02026B   13286.19887720  .00000075  00000-0  59922-4 0  8784
2 27437 082.9521 345.7115 0046026 176.6763 236.0012 13.76527373571621
0 SL-8 R/B
1 27437U 02026B   13288.54017133  .00000083  00000-0  68502-4 0  8792
2 27437 082.9515 343.9749 0046167 170.1958 318.2120 13.76527622571943
0 SL-8 R/B
1 27437U 02026B   13290.71907253  .00000058  00000-0  43060-4 0  8801
2 27437 082.9509 342.3584 0046297 164.1911 315.6644 13.76528101572241
0 SL-8 R/B
1 27437U 02026B   13292.75777491  .00000055  00000-0  40131-4 0  8810
2 27437 082.9507 340.8458 0046391 158.5997 338.3444 13.76528457572523
0 SL-8 R/B
1 27437U 02026B   13295.13945766  .00000037  00000-0  21844-4 0  8828
2 27437 082.9507 339.0787 0046512 152.0763 260.6385 13.76528512572852
